{
  "type": "FeatureCollection",
  "features": [
    {
      "type": "Feature",
      "properties": {
        "norad_id": 34913,
        "name": "COSMOS 2251 DEB",
        "group": "cosmos-2251-debris",
        "lat": 69.34056564426548,
        "lon": -13.552309467131314,
        "alt_km": 756.4321325516967,
        "timestamp": "2025-12-04T19:33:59.994666+00:00",
        "meta_object_name": "COSMOS 2251 DEB",
        "meta_object_id": "1993-036ADJ",
        "meta_epoch": "2025-12-04T06:07:38.155008",
        "meta_mean_motion": 14.34633258,
        "meta_eccentricity": 0.00200574,
        "meta_inclination": 74.0277,
        "meta_ra_of_asc_node": 298.0463,
        "meta_arg_of_pericenter": 50.7163,
        "meta_mean_anomaly": 15.0056,
        "meta_ephemeris_type": 0,
        "meta_classification_type": "U",
        "meta_norad_cat_id": 34913,
        "meta_element_set_no": 999,
        "meta_rev_at_epoch": 65066,
        "meta_bstar": 0.00010198583,
        "meta_mean_motion_dot": 2.63e-06,
        "meta_mean_motion_ddot": 0,
        "tle_line1": "1 34913U 93036ADJ 25338.25530272  .00000263  00000+0  10199-3 0  9991",
        "tle_line2": "2 34913  74.0277 298.0463 0020057  50.7163  15.0056 14.34633258650666"
      },
      "geometry": {
        "type": "Point",
        "coordinates": [
          -13.552309467131314,
          69.34056564426548
        ]
      }
    },
    {
      "type": "Feature",
      "properties": {
        "norad_id": 34918,
        "name": "COSMOS 2251 DEB",
        "group": "cosmos-2251-debris",
        "lat": -8.838861521041578,
        "lon": 151.29225573034037,
        "alt_km": 701.3037189372926,
        "timestamp": "2025-12-04T19:33:59.994675+00:00",
        "meta_object_name": "COSMOS 2251 DEB",
        "meta_object_id": "1993-036ADP",
        "meta_epoch": "2025-12-02T07:49:20.078112",
        "meta_mean_motion": 14.60858458,
        "meta_eccentricity": 0.0034182,
        "meta_inclination": 74.0712,
        "meta_ra_of_asc_node": 333.4916,
        "meta_arg_of_pericenter": 302.4495,
        "meta_mean_anomaly": 120.4085,
        "meta_ephemeris_type": 0,
        "meta_classification_type": "U",
        "meta_norad_cat_id": 34918,
        "meta_element_set_no": 999,
        "meta_rev_at_epoch": 65184,
        "meta_bstar": 0.0024749,
        "meta_mean_motion_dot": 0.00012194,
        "meta_mean_motion_ddot": 0,
        "tle_line1": "1 34918U 93036ADP 25336.32592683  .00012194  00000+0  24749-2 0  9997",
        "tle_line2": "2 34918  74.0712 333.4916 0034182 302.4495 120.4085 14.60858458651845"
      },
      "geometry": {
        "type": "Point",
        "coordinates": [
          151.29225573034037,
          -8.838861521041578
        ]
      }
    },
    {
      "type": "Feature",
      "properties": {
        "norad_id": 34924,
        "name": "COSMOS 2251 DEB",
        "group": "cosmos-2251-debris",
        "lat": -35.796618645015435,
        "lon": -63.524018991722905,
        "alt_km": 664.423699318063,
        "timestamp": "2025-12-04T19:33:59.994684+00:00",
        "meta_object_name": "COSMOS 2251 DEB",
        "meta_object_id": "1993-036ADV",
        "meta_epoch": "2025-12-03T13:33:03.347712",
        "meta_mean_motion": 14.59870223,
        "meta_eccentricity": 0.00552594,
        "meta_inclination": 74.0398,
        "meta_ra_of_asc_node": 106.9505,
        "meta_arg_of_pericenter": 193.7094,
        "meta_mean_anomaly": 293.1783,
        "meta_ephemeris_type": 0,
        "meta_classification_type": "U",
        "meta_norad_cat_id": 34924,
        "meta_element_set_no": 999,
        "meta_rev_at_epoch": 87589,
        "meta_bstar": 0.0017559508,
        "meta_mean_motion_dot": 8.565e-05,
        "meta_mean_motion_ddot": 0,
        "tle_line1": "1 34924U 93036ADV 25337.56462208  .00008565  00000+0  17560-2 0  9990",
        "tle_line2": "2 34924  74.0398 106.9505 0055259 193.7094 293.1783 14.59870223875891"
      },
      "geometry": {
        "type": "Point",
        "coordinates": [
          -63.524018991722905,
          -35.796618645015435
        ]
      }
    },
    {
      "type": "Feature",
      "properties": {
        "norad_id": 34944,
        "name": "COSMOS 2251 DEB",
        "group": "cosmos-2251-debris",
        "lat": -9.635141052923919,
        "lon": 69.17096016668718,
        "alt_km": 858.1681122834334,
        "timestamp": "2025-12-04T19:33:59.994693+00:00",
        "meta_object_name": "COSMOS 2251 DEB",
        "meta_object_id": "1993-036ADX",
        "meta_epoch": "2025-12-03T10:26:13.837632",
        "meta_mean_motion": 14.14147852,
        "meta_eccentricity": 0.02196989,
        "meta_inclination": 73.7497,
        "meta_ra_of_asc_node": 248.822,
        "meta_arg_of_pericenter": 98.0447,
        "meta_mean_anomaly": 264.5682,
        "meta_ephemeris_type": 0,
        "meta_classification_type": "U",
        "meta_norad_cat_id": 34944,
        "meta_element_set_no": 999,
        "meta_rev_at_epoch": 63951,
        "meta_bstar": 0.00087621721,
        "meta_mean_motion_dot": 2.079e-05,
        "meta_mean_motion_ddot": 0,
        "tle_line1": "1 34944U 93036ADX 25337.43488238  .00002079  00000+0  87622-3 0  9990",
        "tle_line2": "2 34944  73.7497 248.8220 0219698  98.0447 264.5682 14.14147852639510"
      },
      "geometry": {
        "type": "Point",
        "coordinates": [
          69.17096016668718,
          -9.635141052923919
        ]
      }
    },
    {
      "type": "Feature",
      "properties": {
        "norad_id": 34946,
        "name": "COSMOS 2251 DEB",
        "group": "cosmos-2251-debris",
        "lat": 4.11668799480327,
        "lon": -1.5205008571794123,
        "alt_km": 712.4666114361617,
        "timestamp": "2025-12-04T19:33:59.994702+00:00",
        "meta_object_name": "COSMOS 2251 DEB",
        "meta_object_id": "1993-036ADZ",
        "meta_epoch": "2025-12-03T18:54:41.961024",
        "meta_mean_motion": 14.61916973,
        "meta_eccentricity": 0.00490667,
        "meta_inclination": 74.0235,
        "meta_ra_of_asc_node": 359.265,
        "meta_arg_of_pericenter": 139.3091,
        "meta_mean_anomaly": 221.1759,
        "meta_ephemeris_type": 0,
        "meta_classification_type": "U",
        "meta_norad_cat_id": 34946,
        "meta_element_set_no": 999,
        "meta_rev_at_epoch": 88078,
        "meta_bstar": 0.00080246864,
        "meta_mean_motion_dot": 4.057e-05,
        "meta_mean_motion_ddot": 0,
        "tle_line1": "1 34946U 93036ADZ 25337.78798566  .00004057  00000+0  80247-3 0  9992",
        "tle_line2": "2 34946  74.0235 359.2650 0049066 139.3091 221.1759 14.61916973880785"
      },
      "geometry": {
        "type": "Point",
        "coordinates": [
          -1.5205008571794123,
          4.11668799480327
        ]
      }
    },
    {
      "type": "Feature",
      "properties": {
        "norad_id": 34949,
        "name": "COSMOS 2251 DEB",
        "group": "cosmos-2251-debris",
        "lat": -70.68556496463576,
        "lon": 70.2717153516863,
        "alt_km": 599.679590988082,
        "timestamp": "2025-12-04T19:33:59.994710+00:00",
        "meta_object_name": "COSMOS 2251 DEB",
        "meta_object_id": "1993-036AEC",
        "meta_epoch": "2025-12-04T03:37:52.111776",
        "meta_mean_motion": 14.73902781,
        "meta_eccentricity": 0.00804587,
        "meta_inclination": 74.0169,
        "meta_ra_of_asc_node": 126.4325,
        "meta_arg_of_pericenter": 273.4906,
        "meta_mean_anomaly": 85.7067,
        "meta_ephemeris_type": 0,
        "meta_classification_type": "U",
        "meta_norad_cat_id": 34949,
        "meta_element_set_no": 999,
        "meta_rev_at_epoch": 88235,
        "meta_bstar": 0.0010125987,
        "meta_mean_motion_dot": 6.966e-05,
        "meta_mean_motion_ddot": 0,
        "tle_line1": "1 34949U 93036AEC 25338.15129759  .00006966  00000+0  10126-2 0  9998",
        "tle_line2": "2 34949  74.0169 126.4325 0080458 273.4906  85.7067 14.73902781882358"
      },
      "geometry": {
        "type": "Point",
        "coordinates": [
          70.2717153516863,
          -70.68556496463576
        ]
      }
    },
    {
      "type": "Feature",
      "properties": {
        "norad_id": 34953,
        "name": "COSMOS 2251 DEB",
        "group": "cosmos-2251-debris",
        "lat": 38.293062305843016,
        "lon": 55.78810071585327,
        "alt_km": 620.9986358597789,
        "timestamp": "2025-12-04T19:33:59.994734+00:00",
        "meta_object_name": "COSMOS 2251 DEB",
        "meta_object_id": "1993-036AEG",
        "meta_epoch": "2025-12-04T06:36:02.186784",
        "meta_mean_motion": 14.68838342,
        "meta_eccentricity": 0.00576625,
        "meta_inclination": 74.0941,
        "meta_ra_of_asc_node": 43.8179,
        "meta_arg_of_pericenter": 38.4559,
        "meta_mean_anomaly": 26.1347,
        "meta_ephemeris_type": 0,
        "meta_classification_type": "U",
        "meta_norad_cat_id": 34953,
        "meta_element_set_no": 999,
        "meta_rev_at_epoch": 88004,
        "meta_bstar": 0.0019147117,
        "meta_mean_motion_dot": 0.00011459,
        "meta_mean_motion_ddot": 0,
        "tle_line1": "1 34953U 93036AEG 25338.27502531  .00011459  00000+0  19147-2 0  9994",
        "tle_line2": "2 34953  74.0941  43.8179 0057662  38.4559  26.1347 14.68838342880043"
      },
      "geometry": {
        "type": "Point",
        "coordinates": [
          55.78810071585327,
          38.293062305843016
        ]
      }
    }
  ]
}